start=new Date('2022-05-31T00:00:00.000Z').valueOf();
sats=[{"BSTAR":"-0.00001635900000","TLE_LINE2":"2 48308  53.0537 161.9347 0001869  48.9164 311.1986 15.06396010 60337","OBJECT_ID":"2021-036AJ","OBJECT_NAME":"STARLINK-2532","REF_FRAME":"TEME","GP_ID":"204977336","DECAY_DATE":null,"REV_AT_EPOCH":"6033","MEAN_MOTION_DOT":"-0.00000525","FILE":"3472994","CENTER_NAME":"EARTH","ARG_OF_PERICENTER":"48.9164","SEMIMAJOR_AXIS":"6925.361","MEAN_MOTION":"15.06396010","PERIOD":"95.592","EPOCH":"2022-05-30T17:55:13.727424","NORAD_CAT_ID":"48308","RA_OF_ASC_NODE":"161.9347","ECCENTRICITY":"0.00018690","MEAN_MOTION_DDOT":"0.0000000000000","MEAN_ELEMENT_THEORY":"SGP4","COUNTRY_CODE":"US","INCLINATION":"53.0537","TIME_SYSTEM":"UTC","APOAPSIS":"548.520","LAUNCH_DATE":"2021-04-29","OBJECT_TYPE":"PAYLOAD","MEAN_ANOMALY":"311.1986","ELEMENT_SET_NO":"999","RCS_SIZE":"LARGE","EPHEMERIS_TYPE":"0","PERIAPSIS":"545.931","TLE_LINE1":"1 48308U 21036AJ  22150.74668666 -.00000525  00000-0 -16359-4 0  9996","SITE":"AFETR","CLASSIFICATION_TYPE":"U"},{"SEMIMAJOR_AXIS":"6925.406","MEAN_MOTION":"15.06381358","ARG_OF_PERICENTER":"60.3380","CENTER_NAME":"EARTH","FILE":"3472994","REV_AT_EPOCH":"6033","DECAY_DATE":null,"MEAN_MOTION_DOT":"-0.00001883","REF_FRAME":"TEME","GP_ID":"204977086","OBJECT_ID":"2021-036AK","OBJECT_NAME":"STARLINK-2517","TLE_LINE2":"2 48309  53.0549 161.9607 0001654  60.3380 299.7774 15.06381358 60335","BSTAR":"-0.00010759000000","TLE_LINE1":"1 48309U 21036AK  22150.74301417 -.00001883  00000-0 -10759-3 0  9990","PERIAPSIS":"546.125","CLASSIFICATION_TYPE":"U","SITE":"AFETR","RCS_SIZE":"LARGE","EPHEMERIS_TYPE":"0","TIME_SYSTEM":"UTC","APOAPSIS":"548.416","INCLINATION":"53.0549","COUNTRY_CODE":"US","ELEMENT_SET_NO":"999","MEAN_ANOMALY":"299.7774","OBJECT_TYPE":"PAYLOAD","LAUNCH_DATE":"2021-04-29","MEAN_ELEMENT_THEORY":"SGP4","MEAN_MOTION_DDOT":"0.0000000000000","RA_OF_ASC_NODE":"161.9607","NORAD_CAT_ID":"48309","ECCENTRICITY":"0.00016540","EPOCH":"2022-05-30T17:49:56.424288","PERIOD":"95.593"},{"GP_ID":"204941115","REF_FRAME":"TEME","MEAN_MOTION_DOT":"0.00000378","DECAY_DATE":null,"REV_AT_EPOCH":"6029","TLE_LINE2":"2 48310  53.0549 163.1594 0001565  58.6766 301.4376 15.06405069 60295","BSTAR":"0.00004424400000","OBJECT_NAME":"STARLINK-2536","OBJECT_ID":"2021-036AL","ARG_OF_PERICENTER":"58.6766","MEAN_MOTION":"15.06405069","SEMIMAJOR_AXIS":"6925.333","FILE":"3472495","CENTER_NAME":"EARTH","ECCENTRICITY":"0.00015650","NORAD_CAT_ID":"48310","RA_OF_ASC_NODE":"163.1594","MEAN_MOTION_DDOT":"0.0000000000000","MEAN_ELEMENT_THEORY":"SGP4","PERIOD":"95.592","EPOCH":"2022-05-30T11:22:26.098752","CLASSIFICATION_TYPE":"U","SITE":"AFETR","PERIAPSIS":"546.114","TLE_LINE1":"1 48310U 21036AL  22150.47391318  .00000378  00000-0  44244-4 0  9994","OBJECT_TYPE":"PAYLOAD","LAUNCH_DATE":"2021-04-29","ELEMENT_SET_NO":"999","MEAN_ANOMALY":"301.4376","INCLINATION":"53.0549","COUNTRY_CODE":"US","APOAPSIS":"548.282","TIME_SYSTEM":"UTC","EPHEMERIS_TYPE":"0","RCS_SIZE":"LARGE"},{"OBJECT_ID":"2021-036AM","OBJECT_NAME":"STARLINK-2534","BSTAR":"-0.00007876700000","TLE_LINE2":"2 48311  53.0532 161.9845 0001741  58.1170 301.9988 15.06395932 60339","DECAY_DATE":null,"REV_AT_EPOCH":"6033","MEAN_MOTION_DOT":"-0.00001455","GP_ID":"204978584","REF_FRAME":"TEME","CENTER_NAME":"EARTH","FILE":"3472994","SEMIMAJOR_AXIS":"6925.361","MEAN_MOTION":"15.06395932","ARG_OF_PERICENTER":"58.1170","PERIOD":"95.592","EPOCH":"2022-05-30T17:39:18.271296","MEAN_ELEMENT_THEORY":"SGP4","MEAN_MOTION_DDOT":"0.0000000000000","NORAD_CAT_ID":"48311","RA_OF_ASC_NODE":"161.9845","ECCENTRICITY":"0.00017410","RCS_SIZE":"LARGE","EPHEMERIS_TYPE":"0","COUNTRY_CODE":"US","INCLINATION":"53.0532","APOAPSIS":"548.432","TIME_SYSTEM":"UTC","LAUNCH_DATE":"2021-04-29","OBJECT_TYPE":"PAYLOAD","ELEMENT_SET_NO":"999","MEAN_ANOMALY":"301.9988","PERIAPSIS":"546.020","TLE_LINE1":"1 48311U 21036AM  22150.73562814 -.00001455  00000-0 -78767-4 0  9991","CLASSIFICATION_TYPE":"U","SITE":"AFETR"},{"OBJECT_NAME":"STARLINK-2061","OBJECT_ID":"2021-036AN","BSTAR":"-0.00000608770000","TLE_LINE2":"2 48312  53.0546 162.0072 0002063  50.1994 309.9176 15.06385956 60335","MEAN_MOTION_DOT":"-0.00000372","DECAY_DATE":null,"REV_AT_EPOCH":"6033","GP_ID":"204976837","REF_FRAME":"TEME","CENTER_NAME":"EARTH","FILE":"3472994","MEAN_MOTION":"15.06385956","SEMIMAJOR_AXIS":"6925.392","ARG_OF_PERICENTER":"50.1994","PERIOD":"95.593","EPOCH":"2022-05-30T17:34:00.295968","MEAN_MOTION_DDOT":"0.0000000000000","MEAN_ELEMENT_THEORY":"SGP4","ECCENTRICITY":"0.00020630","NORAD_CAT_ID":"48312","RA_OF_ASC_NODE":"162.0072","EPHEMERIS_TYPE":"0","RCS_SIZE":"LARGE","OBJECT_TYPE":"PAYLOAD","LAUNCH_DATE":"2021-04-29","MEAN_ANOMALY":"309.9176","ELEMENT_SET_NO":"999","COUNTRY_CODE":"US","INCLINATION":"53.0546","APOAPSIS":"548.685","TIME_SYSTEM":"UTC","SITE":"AFETR","CLASSIFICATION_TYPE":"U","PERIAPSIS":"545.828","TLE_LINE1":"1 48312U 21036AN  22150.73194787 -.00000372  00000-0 -60877-5 0  9993"},{"PERIOD":"95.593","EPOCH":"2022-05-30T17:28:42.334464","MEAN_MOTION_DDOT":"0.0000000000000","MEAN_ELEMENT_THEORY":"SGP4","ECCENTRICITY":"0.00018050","NORAD_CAT_ID":"48313","RA_OF_ASC_NODE":"162.0033","EPHEMERIS_TYPE":"0","RCS_SIZE":"LARGE","LAUNCH_DATE":"2021-04-29","OBJECT_TYPE":"PAYLOAD","ELEMENT_SET_NO":"999","MEAN_ANOMALY":"311.0232","COUNTRY_CODE":"US","INCLINATION":"53.0529","APOAPSIS":"548.512","TIME_SYSTEM":"UTC","CLASSIFICATION_TYPE":"U","SITE":"AFETR","PERIAPSIS":"546.012","TLE_LINE1":"1 48313U 21036AP  22150.72826776 -.00002114  00000-0 -12314-3 0  9990","OBJECT_NAME":"STARLINK-2541","OBJECT_ID":"2021-036AP","TLE_LINE2":"2 48313  53.0529 162.0033 0001805  49.0913 311.0232 15.06384058 60323","BSTAR":"-0.00012314000000","MEAN_MOTION_DOT":"-0.00002114","DECAY_DATE":null,"REV_AT_EPOCH":"6032","REF_FRAME":"TEME","GP_ID":"204977586","CENTER_NAME":"EARTH","FILE":"3472994","MEAN_MOTION":"15.06384058","SEMIMAJOR_AXIS":"6925.397","ARG_OF_PERICENTER":"49.0913"},{"CENTER_NAME":"EARTH","FILE":"3472994","MEAN_MOTION":"15.06383494","SEMIMAJOR_AXIS":"6925.399","ARG_OF_PERICENTER":"59.2532","OBJECT_NAME":"STARLINK-2549","OBJECT_ID":"2021-036AQ","BSTAR":"-0.00003401600000","TLE_LINE2":"2 48314  53.0545 162.0429 0001772  59.2532 300.8631 15.06383494 60326","MEAN_MOTION_DOT":"-0.00000788","REV_AT_EPOCH":"6032","DECAY_DATE":null,"GP_ID":"204977835","REF_FRAME":"TEME","EPHEMERIS_TYPE":"0","RCS_SIZE":"LARGE","MEAN_ANOMALY":"300.8631","ELEMENT_SET_NO":"999","OBJECT_TYPE":"PAYLOAD","LAUNCH_DATE":"2021-04-29","APOAPSIS":"548.491","TIME_SYSTEM":"UTC","COUNTRY_CODE":"US","INCLINATION":"53.0545","SITE":"AFETR","CLASSIFICATION_TYPE":"U","TLE_LINE1":"1 48314U 21036AQ  22150.72457268 -.00000788  00000-0 -34016-4 0  9996","PERIAPSIS":"546.037","EPOCH":"2022-05-30T17:23:23.079552","PERIOD":"95.593","MEAN_MOTION_DDOT":"0.0000000000000","MEAN_ELEMENT_THEORY":"SGP4","ECCENTRICITY":"0.00017720","RA_OF_ASC_NODE":"162.0429","NORAD_CAT_ID":"48314"},{"OBJECT_NAME":"STARLINK-2506","OBJECT_ID":"2021-036AR","BSTAR":"-0.00004017700000","TLE_LINE2":"2 48315  53.0529 162.0434 0001689  53.9837 306.1309 15.06393272 60327","MEAN_MOTION_DOT":"-0.00000880","REV_AT_EPOCH":"6032","DECAY_DATE":null,"REF_FRAME":"TEME","GP_ID":"204978085","CENTER_NAME":"EARTH","FILE":"3472994","MEAN_MOTION":"15.06393272","SEMIMAJOR_AXIS":"6925.369","ARG_OF_PERICENTER":"53.9837","EPOCH":"2022-05-30T17:16:42.537792","PERIOD":"95.593","MEAN_MOTION_DDOT":"0.0000000000000","MEAN_ELEMENT_THEORY":"SGP4","ECCENTRICITY":"0.00016890","RA_OF_ASC_NODE":"162.0434","NORAD_CAT_ID":"48315","EPHEMERIS_TYPE":"0","RCS_SIZE":"LARGE","ELEMENT_SET_NO":"999","MEAN_ANOMALY":"306.1309","OBJECT_TYPE":"PAYLOAD","LAUNCH_DATE":"2021-04-29","TIME_SYSTEM":"UTC","APOAPSIS":"548.404","COUNTRY_CODE":"US","INCLINATION":"53.0529","CLASSIFICATION_TYPE":"U","SITE":"AFETR","TLE_LINE1":"1 48315U 21036AR  22150.71993678 -.00000880  00000-0 -40177-4 0  9994","PERIAPSIS":"546.064"},{"TLE_LINE2":"2 48316  53.0533 163.2587 0001762  56.3433 303.7724 15.06391857 60282","BSTAR":"-0.00001327100000","OBJECT_NAME":"STARLINK-2507","OBJECT_ID":"2021-036AS","GP_ID":"204942117","REF_FRAME":"TEME","MEAN_MOTION_DOT":"-0.00000479","DECAY_DATE":null,"REV_AT_EPOCH":"6028","FILE":"3472495","CENTER_NAME":"EARTH","ARG_OF_PERICENTER":"56.3433","MEAN_MOTION":"15.06391857","SEMIMAJOR_AXIS":"6925.374","PERIOD":"95.593","EPOCH":"2022-05-30T10:50:37.267872","ECCENTRICITY":"0.00017620","NORAD_CAT_ID":"48316","RA_OF_ASC_NODE":"163.2587","MEAN_ELEMENT_THEORY":"SGP4","MEAN_MOTION_DDOT":"0.0000000000000","OBJECT_TYPE":"PAYLOAD","LAUNCH_DATE":"2021-04-29","MEAN_ANOMALY":"303.7724","ELEMENT_SET_NO":"999","COUNTRY_CODE":"US","INCLINATION":"53.0533","APOAPSIS":"548.459","TIME_SYSTEM":"UTC","EPHEMERIS_TYPE":"0","RCS_SIZE":"LARGE","SITE":"AFETR","CLASSIFICATION_TYPE":"U","PERIAPSIS":"546.018","TLE_LINE1":"1 48316U 21036AS  22150.45182023 -.00000479  00000-0 -13271-4 0  9999"},{"OBJECT_ID":"2021-036AT","OBJECT_NAME":"STARLINK-2513","BSTAR":"-0.00002869100000","TLE_LINE2":"2 48317  53.0517 162.9833 0001970  53.9597 306.1574 15.06390190 60942","DECAY_DATE":null,"REV_AT_EPOCH":"6094","MEAN_MOTION_DOT":"-0.00000709","GP_ID":"204947072","REF_FRAME":"TEME","CENTER_NAME":"EARTH","FILE":"3472590","SEMIMAJOR_AXIS":"6925.379","MEAN_MOTION":"15.06390190","ARG_OF_PERICENTER":"53.9597","PERIOD":"95.593","EPOCH":"2022-05-30T12:20:51.406368","MEAN_MOTION_DDOT":"0.0000000000000","MEAN_ELEMENT_THEORY":"SGP4","NORAD_CAT_ID":"48317","RA_OF_ASC_NODE":"162.9833","ECCENTRICITY":"0.00019700","RCS_SIZE":"LARGE","EPHEMERIS_TYPE":"0","COUNTRY_CODE":"US","INCLINATION":"53.0517","APOAPSIS":"548.608","TIME_SYSTEM":"UTC","OBJECT_TYPE":"PAYLOAD","LAUNCH_DATE":"2021-04-29","ELEMENT_SET_NO":"999","MEAN_ANOMALY":"306.1574","PERIAPSIS":"545.879","TLE_LINE1":"1 48317U 21036AT  22150.51448387 -.00000709  00000-0 -28691-4 0  9993","SITE":"AFETR","CLASSIFICATION_TYPE":"U"}];
